HYPERFIELD-1A           
1 60562U 24149CY  26068.76488211  .00008569  00000+0  30052-3 0  9998
2 60562  97.3842 149.5066 0003865 313.7844  46.3076 15.29681349 86836
STARLINK-33767          
1 63722U 25087AB  26068.70486727  .00030991  00000+0  10540-2 0  9998
2 63722  53.1572 219.3615 0001059  56.8658 303.2444 15.30203063 49203
